[{"OBJECT_NAME":"FLOCK 4G-8","OBJECT_ID":"2025-009E","EPOCH":"2026-03-09T17:22:17.546016","MEAN_MOTION":15.27623414,"ECCENTRICITY":0.00030503,"INCLINATION":97.4045,"RA_OF_ASC_NODE":151.2834,"ARG_OF_PERICENTER":315.2538,"MEAN_ANOMALY":44.8455,"EPHEMERIS_TYPE":0,"CLASSIFICATION_TYPE":"U","NORAD_CAT_ID":62613,"ELEMENT_SET_NO":999,"REV_AT_EPOCH":6372,"BSTAR":0.0005043806,"MEAN_MOTION_DOT":0.00013559,"MEAN_MOTION_DDOT":0},{"OBJECT_NAME":"AVUM R\/B","OBJECT_ID":"2021-105D","EPOCH":"2026-03-09T22:34:58.119744","MEAN_MOTION":15.31894528,"ECCENTRICITY":0.0086274,"INCLINATION":74.9219,"RA_OF_ASC_NODE":283.347,"ARG_OF_PERICENTER":214.1912,"MEAN_ANOMALY":145.3726,"EPHEMERIS_TYPE":0,"CLASSIFICATION_TYPE":"U","NORAD_CAT_ID":49467,"ELEMENT_SET_NO":999,"REV_AT_EPOCH":23867,"BSTAR":0.00030152064,"MEAN_MOTION_DOT":0.00010411,"MEAN_MOTION_DDOT":0}]
